COSMOS 1933             
1 18958U 88020A   26062.46176500  .00005025  00000+0  24633-3 0  9996
2 18958  82.5095 257.0758 0003378 206.0516 154.0548 15.17915908 49283
SL-3 R/B                
1 19046U 88032B   26062.47801110  .00006851  00000+0  32059-3 0  9990
2 19046  97.5179  45.7512 0024114 254.8458 105.0110 15.19818767 51166
SL-16 R/B               
1 19120U 88039B   26062.49774189  .00000081  00000+0  60980-4 0  9991
2 19120  71.0130  81.6418 0022412 343.4793  16.5599 14.19615601957504
COSMOS 1953             
1 19210U 88050A   26062.34074735  .00010207  00000+0  36736-3 0  9990
2 19210  82.5118 164.6303 0012182 143.2224 216.9854 15.28384705 36811
SL-8 R/B                
1 19257U 88053B   26062.47662976  .00000326  00000+0  11426-3 0  9998
2 19257  74.0469 123.9190 0021284 304.1293 157.6320 14.38911370975709
COSMOS 1975             
1 19573U 88093A   26062.30713237  .00009437  00000+0  34417-3 0  9999
2 19573  82.5199 124.0918 0011539 185.4329 174.6787 15.27952551 18435
SL-14 R/B               
1 19574U 88093B   26062.47691126  .00000752  00000+0  83655-4 0  9990
2 19574  82.5293  47.8765 0022117  60.9018  59.3481 14.85647444    97
SL-16 R/B               
1 19650U 88102B   26062.47714247 -.00000036  00000+0  61011-5 0  9995
2 19650  71.0000 164.5679 0013562  11.0719 349.0700 14.16149386926019
INTERCOSMOS 24          
1 20261U 89080A   26062.20995464  .00000825  00000+0  24512-3 0  9992
2 20261  82.6032 108.6239 1186835 307.8750  42.0620 12.59546135665984
SL-14 R/B               
1 20262U 89080C   26062.39428885  .00000788  00000+0  23453-3 0  9992
2 20262  82.5971 177.2263 1230327 199.1354 155.9376 12.50484175659366
DELTA 1 R/B             
1 20323U 89089B   26062.48194882  .00000467  00000+0  12378-3 0  9994
2 20323  97.0709 270.9079 0070088 141.3074 219.3175 14.50657195894834
ARIANE 40 R/B           
1 20443U 90005H   26062.14237346  .00000314  00000+0  11330-3 0  9991
2 20443  98.3098 122.9986 0009457 218.9754 141.0754 14.39865183891862
