CCSDS_OMM_VERS = 2.0
CREATION_DATE  = 
ORIGINATOR     = 

OBJECT_NAME    = COSMOS 1933
OBJECT_ID      = 1988-020A
CENTER_NAME    = EARTH
REF_FRAME      = TEME
TIME_SYSTEM    = UTC
MEAN_ELEMENT_THEORY = SGP/SGP4

EPOCH          = 2026-03-03T11:04:56.496000
MEAN_MOTION    = 15.17915908
ECCENTRICITY   = .0003378
INCLINATION    = 82.5095
RA_OF_ASC_NODE = 257.0758
ARG_OF_PERICENTER = 206.0516
MEAN_ANOMALY   = 154.0548

EPHEMERIS_TYPE = 0
CLASSIFICATION_TYPE = U
NORAD_CAT_ID   = 18958
ELEMENT_SET_NO = 999
REV_AT_EPOCH   = 4928
BSTAR          = .24633E-3
MEAN_MOTION_DOT = .5025E-4
MEAN_MOTION_DDOT = 0

CCSDS_OMM_VERS = 2.0
CREATION_DATE  = 
ORIGINATOR     = 

OBJECT_NAME    = SL-3 R/B
OBJECT_ID      = 1988-032B
CENTER_NAME    = EARTH
REF_FRAME      = TEME
TIME_SYSTEM    = UTC
MEAN_ELEMENT_THEORY = SGP/SGP4

EPOCH          = 2026-03-03T11:28:20.159040
MEAN_MOTION    = 15.19818767
ECCENTRICITY   = .0024114
INCLINATION    = 97.5179
RA_OF_ASC_NODE = 45.7512
ARG_OF_PERICENTER = 254.8458
MEAN_ANOMALY   = 105.0110

EPHEMERIS_TYPE = 0
CLASSIFICATION_TYPE = U
NORAD_CAT_ID   = 19046
ELEMENT_SET_NO = 999
REV_AT_EPOCH   = 5116
BSTAR          = .32059E-3
MEAN_MOTION_DOT = .6851E-4
MEAN_MOTION_DDOT = 0

CCSDS_OMM_VERS = 2.0
CREATION_DATE  = 
ORIGINATOR     = 

OBJECT_NAME    = SL-16 R/B
OBJECT_ID      = 1988-039B
CENTER_NAME    = EARTH
REF_FRAME      = TEME
TIME_SYSTEM    = UTC
MEAN_ELEMENT_THEORY = SGP/SGP4

EPOCH          = 2026-03-03T11:56:44.899296
MEAN_MOTION    = 14.19615601
ECCENTRICITY   = .0022412
INCLINATION    = 71.0130
RA_OF_ASC_NODE = 81.6418
ARG_OF_PERICENTER = 343.4793
MEAN_ANOMALY   = 16.5599

EPHEMERIS_TYPE = 0
CLASSIFICATION_TYPE = U
NORAD_CAT_ID   = 19120
ELEMENT_SET_NO = 999
REV_AT_EPOCH   = 95750
BSTAR          = .6098E-4
MEAN_MOTION_DOT = .81E-6
MEAN_MOTION_DDOT = 0

CCSDS_OMM_VERS = 2.0
CREATION_DATE  = 
ORIGINATOR     = 

OBJECT_NAME    = COSMOS 1953
OBJECT_ID      = 1988-050A
CENTER_NAME    = EARTH
REF_FRAME      = TEME
TIME_SYSTEM    = UTC
MEAN_ELEMENT_THEORY = SGP/SGP4

EPOCH          = 2026-03-03T08:10:40.571040
MEAN_MOTION    = 15.28384705
ECCENTRICITY   = .0012182
INCLINATION    = 82.5118
RA_OF_ASC_NODE = 164.6303
ARG_OF_PERICENTER = 143.2224
MEAN_ANOMALY   = 216.9854

EPHEMERIS_TYPE = 0
CLASSIFICATION_TYPE = U
NORAD_CAT_ID   = 19210
ELEMENT_SET_NO = 999
REV_AT_EPOCH   = 3681
BSTAR          = .36736E-3
MEAN_MOTION_DOT = .10207E-3
MEAN_MOTION_DDOT = 0

CCSDS_OMM_VERS = 2.0
CREATION_DATE  = 
ORIGINATOR     = 

OBJECT_NAME    = SL-8 R/B
OBJECT_ID      = 1988-053B
CENTER_NAME    = EARTH
REF_FRAME      = TEME
TIME_SYSTEM    = UTC
MEAN_ELEMENT_THEORY = SGP/SGP4

EPOCH          = 2026-03-03T11:26:20.811264
MEAN_MOTION    = 14.38911370
ECCENTRICITY   = .0021284
INCLINATION    = 74.0469
RA_OF_ASC_NODE = 123.9190
ARG_OF_PERICENTER = 304.1293
MEAN_ANOMALY   = 157.6320

EPHEMERIS_TYPE = 0
CLASSIFICATION_TYPE = U
NORAD_CAT_ID   = 19257
ELEMENT_SET_NO = 999
REV_AT_EPOCH   = 97570
BSTAR          = .11426E-3
MEAN_MOTION_DOT = .326E-5
MEAN_MOTION_DDOT = 0

CCSDS_OMM_VERS = 2.0
CREATION_DATE  = 
ORIGINATOR     = 

OBJECT_NAME    = COSMOS 1975
OBJECT_ID      = 1988-093A
CENTER_NAME    = EARTH
REF_FRAME      = TEME
TIME_SYSTEM    = UTC
MEAN_ELEMENT_THEORY = SGP/SGP4

EPOCH          = 2026-03-03T07:22:16.236768
MEAN_MOTION    = 15.27952551
ECCENTRICITY   = .0011539
INCLINATION    = 82.5199
RA_OF_ASC_NODE = 124.0918
ARG_OF_PERICENTER = 185.4329
MEAN_ANOMALY   = 174.6787

EPHEMERIS_TYPE = 0
CLASSIFICATION_TYPE = U
NORAD_CAT_ID   = 19573
ELEMENT_SET_NO = 999
REV_AT_EPOCH   = 1843
BSTAR          = .34417E-3
MEAN_MOTION_DOT = .9437E-4
MEAN_MOTION_DDOT = 0

CCSDS_OMM_VERS = 2.0
CREATION_DATE  = 
ORIGINATOR     = 

OBJECT_NAME    = SL-14 R/B
OBJECT_ID      = 1988-093B
CENTER_NAME    = EARTH
REF_FRAME      = TEME
TIME_SYSTEM    = UTC
MEAN_ELEMENT_THEORY = SGP/SGP4

EPOCH          = 2026-03-03T11:26:45.132864
MEAN_MOTION    = 14.85647444
ECCENTRICITY   = .0022117
INCLINATION    = 82.5293
RA_OF_ASC_NODE = 47.8765
ARG_OF_PERICENTER = 60.9018
MEAN_ANOMALY   = 59.3481

EPHEMERIS_TYPE = 0
CLASSIFICATION_TYPE = U
NORAD_CAT_ID   = 19574
ELEMENT_SET_NO = 999
REV_AT_EPOCH   = 9
BSTAR          = .83655E-4
MEAN_MOTION_DOT = .752E-5
MEAN_MOTION_DDOT = 0

CCSDS_OMM_VERS = 2.0
CREATION_DATE  = 
ORIGINATOR     = 

OBJECT_NAME    = SL-16 R/B
OBJECT_ID      = 1988-102B
CENTER_NAME    = EARTH
REF_FRAME      = TEME
TIME_SYSTEM    = UTC
MEAN_ELEMENT_THEORY = SGP/SGP4

EPOCH          = 2026-03-03T11:27:05.109408
MEAN_MOTION    = 14.16149386
ECCENTRICITY   = .0013562
INCLINATION    = 71.0000
RA_OF_ASC_NODE = 164.5679
ARG_OF_PERICENTER = 11.0719
MEAN_ANOMALY   = 349.0700

EPHEMERIS_TYPE = 0
CLASSIFICATION_TYPE = U
NORAD_CAT_ID   = 19650
ELEMENT_SET_NO = 999
REV_AT_EPOCH   = 92601
BSTAR          = .61011E-5
MEAN_MOTION_DOT = -.36E-6
MEAN_MOTION_DDOT = 0

CCSDS_OMM_VERS = 2.0
CREATION_DATE  = 
ORIGINATOR     = 

OBJECT_NAME    = INTERCOSMOS 24
OBJECT_ID      = 1989-080A
CENTER_NAME    = EARTH
REF_FRAME      = TEME
TIME_SYSTEM    = UTC
MEAN_ELEMENT_THEORY = SGP/SGP4

EPOCH          = 2026-03-03T05:02:20.080896
MEAN_MOTION    = 12.59546135
ECCENTRICITY   = .1186835
INCLINATION    = 82.6032
RA_OF_ASC_NODE = 108.6239
ARG_OF_PERICENTER = 307.8750
MEAN_ANOMALY   = 42.0620

EPHEMERIS_TYPE = 0
CLASSIFICATION_TYPE = U
NORAD_CAT_ID   = 20261
ELEMENT_SET_NO = 999
REV_AT_EPOCH   = 66598
BSTAR          = .24512E-3
MEAN_MOTION_DOT = .825E-5
MEAN_MOTION_DDOT = 0

CCSDS_OMM_VERS = 2.0
CREATION_DATE  = 
ORIGINATOR     = 

OBJECT_NAME    = SL-14 R/B
OBJECT_ID      = 1989-080C
CENTER_NAME    = EARTH
REF_FRAME      = TEME
TIME_SYSTEM    = UTC
MEAN_ELEMENT_THEORY = SGP/SGP4

EPOCH          = 2026-03-03T09:27:46.556640
MEAN_MOTION    = 12.50484175
ECCENTRICITY   = .1230327
INCLINATION    = 82.5971
RA_OF_ASC_NODE = 177.2263
ARG_OF_PERICENTER = 199.1354
MEAN_ANOMALY   = 155.9376

EPHEMERIS_TYPE = 0
CLASSIFICATION_TYPE = U
NORAD_CAT_ID   = 20262
ELEMENT_SET_NO = 999
REV_AT_EPOCH   = 65936
BSTAR          = .23453E-3
MEAN_MOTION_DOT = .788E-5
MEAN_MOTION_DDOT = 0

CCSDS_OMM_VERS = 2.0
CREATION_DATE  = 
ORIGINATOR     = 

OBJECT_NAME    = DELTA 1 R/B
OBJECT_ID      = 1989-089B
CENTER_NAME    = EARTH
REF_FRAME      = TEME
TIME_SYSTEM    = UTC
MEAN_ELEMENT_THEORY = SGP/SGP4

EPOCH          = 2026-03-03T11:34:00.378048
MEAN_MOTION    = 14.50657195
ECCENTRICITY   = .0070088
INCLINATION    = 97.0709
RA_OF_ASC_NODE = 270.9079
ARG_OF_PERICENTER = 141.3074
MEAN_ANOMALY   = 219.3175

EPHEMERIS_TYPE = 0
CLASSIFICATION_TYPE = U
NORAD_CAT_ID   = 20323
ELEMENT_SET_NO = 999
REV_AT_EPOCH   = 89483
BSTAR          = .12378E-3
MEAN_MOTION_DOT = .467E-5
MEAN_MOTION_DDOT = 0

CCSDS_OMM_VERS = 2.0
CREATION_DATE  = 
ORIGINATOR     = 

OBJECT_NAME    = ARIANE 40 R/B
OBJECT_ID      = 1990-005H
CENTER_NAME    = EARTH
REF_FRAME      = TEME
TIME_SYSTEM    = UTC
MEAN_ELEMENT_THEORY = SGP/SGP4

EPOCH          = 2026-03-03T03:25:01.066944
MEAN_MOTION    = 14.39865183
ECCENTRICITY   = .0009457
INCLINATION    = 98.3098
RA_OF_ASC_NODE = 122.9986
ARG_OF_PERICENTER = 218.9754
MEAN_ANOMALY   = 141.0754

EPHEMERIS_TYPE = 0
CLASSIFICATION_TYPE = U
NORAD_CAT_ID   = 20443
ELEMENT_SET_NO = 999
REV_AT_EPOCH   = 89186
BSTAR          = .1133E-3
MEAN_MOTION_DOT = .314E-5
MEAN_MOTION_DDOT = 0

